{"type":"FeatureCollection","crs":{"type":"name","properties":{"name":"urn:ogc:def:crs:OGC:1.3:CRS84"}},"features":[{"type":"Feature","properties":{"streamID":9,"feature_index":1},"geometry":{"type":"Polygon","coordinates":[[[23.431055555555922,9.096499999999999],[23.431055555555922,9.096388888888889],[23.431166666667032,9.096388888888889],[23.431166666667032,9.096499999999999],[23.431055555555922,9.096499999999999]]]}},{"type":"Feature","properties":{"streamID":9,"feature_index":2},"geometry":{"type":"Polygon","coordinates":[[[23.460944444444813,9.12138888888889],[23.465500000000368,9.12138888888889],[23.465500000000368,9.121277777777777],[23.465833333333702,9.121277777777777],[23.465833333333702,9.121166666666667],[23.466055555555922,9.121166666666667],[23.466055555555922,9.119944444444444],[23.465944444444812,9.119944444444444],[23.465944444444812,9.11961111111111],[23.46572222222259,9.11961111111111],[23.46572222222259,9.1195],[23.465833333333702,9.1195],[23.465833333333702,9.119388888888889],[23.46572222222259,9.119388888888889],[23.46572222222259,9.119277777777778],[23.465833333333702,9.119277777777778],[23.465833333333702,9.118833333333333],[23.465944444444812,9.118833333333333],[23.465944444444812,9.118055555555555],[23.466055555555922,9.118055555555555],[23.466055555555922,9.117833333333333],[23.465944444444812,9.117833333333333],[23.465944444444812,9.117611111111112],[23.465833333333702,9.117611111111112],[23.465833333333702,9.11738888888889],[23.46572222222259,9.11738888888889],[23.46572222222259,9.117277777777778],[23.465833333333702,9.117277777777778],[23.465833333333702,9.117055555555556],[23.465944444444812,9.117055555555556],[23.465944444444812,9.116944444444444],[23.466166666667036,9.116944444444444],[23.466166666667036,9.116833333333334],[23.466277777778146,9.116833333333334],[23.466277777778146,9.11661111111111],[23.466388888889256,9.11661111111111],[23.466388888889256,9.116388888888888],[23.46650000000037,9.116388888888888],[23.46650000000037,9.115388888888889],[23.466388888889256,9.115388888888889],[23.466388888889256,9.115277777777777],[23.46650000000037,9.115277777777777],[23.46650000000037,9.114611111111111],[23.466388888889256,9.114611111111111],[23.466388888889256,9.11438888888889],[23.46650000000037,9.11438888888889],[23.46650000000037,9.113944444444444],[23.46661111111148,9.113944444444444],[23.46661111111148,9.112944444444445],[23.468055555555924,9.112944444444445],[23.468055555555924,9.112833333333333],[23.468166666667035,9.112833333333333],[23.468166666667035,9.112722222222223],[23.468277777778145,9.112722222222223],[23.468277777778145,9.11261111111111],[23.46850000000037,9.11261111111111],[23.46850000000037,9.1125],[23.46861111111148,9.1125],[23.46861111111148,9.11261111111111],[23.46872222222259,9.11261111111111],[23.46872222222259,9.1125],[23.468833333333702,9.1125],[23.468833333333702,9.112388888888889],[23.469055555555922,9.112388888888889],[23.469055555555922,9.112277777777777],[23.469277777778146,9.112277777777777],[23.469277777778146,9.112166666666667],[23.469388888889256,9.112166666666667],[23.469388888889256,9.112055555555555],[23.469500000000366,9.112055555555555],[23.469500000000366,9.111944444444445],[23.46961111111148,9.111944444444445],[23.46961111111148,9.112055555555555],[23.46972222222259,9.112055555555555],[23.46972222222259,9.111944444444445],[23.4698333333337,9.111944444444445],[23.4698333333337,9.111833333333333],[23.469944444444813,9.111833333333333],[23.469944444444813,9.111722222222221],[23.470055555555923,9.111722222222221],[23.470055555555923,9.111611111111111],[23.470166666667033,9.111611111111111],[23.470166666667033,9.11138888888889],[23.470277777778147,9.11138888888889],[23.470277777778147,9.110388888888888],[23.470166666667033,9.110388888888888],[23.470166666667033,9.110166666666666],[23.470055555555923,9.110166666666666],[23.470055555555923,9.104388888888888],[23.470166666667033,9.104388888888888],[23.470166666667033,9.103833333333332],[23.470055555555923,9.103833333333332],[23.470055555555923,9.102833333333333],[23.4698333333337,9.102833333333333],[23.4698333333337,9.102611111111111],[23.46972222222259,9.102611111111111],[23.46972222222259,9.102166666666665],[23.4698333333337,9.102166666666665],[23.4698333333337,9.102055555555555],[23.469944444444813,9.102055555555555],[23.469944444444813,9.101944444444444],[23.470055555555923,9.101944444444444],[23.470055555555923,9.10061111111111],[23.469944444444813,9.10061111111111],[23.469944444444813,9.099388888888889],[23.4698333333337,9.099388888888889],[23.4698333333337,9.099277777777777],[23.469944444444813,9.099277777777777],[23.469944444444813,9.096833333333333],[23.4698333333337,9.096833333333333],[23.4698333333337,9.095722222222221],[23.46972222222259,9.095722222222221],[23.46972222222259,9.0945],[23.46961111111148,9.0945],[23.46961111111148,9.094277777777776],[23.469500000000366,9.094277777777776],[23.469500000000366,9.094166666666666],[23.469388888889256,9.094166666666666],[23.469388888889256,9.094055555555554],[23.469277777778146,9.094055555555554],[23.469277777778146,9.093944444444444],[23.469166666667036,9.093944444444444],[23.469166666667036,9.093833333333333],[23.469055555555922,9.093833333333333],[23.469055555555922,9.093722222222222],[23.468944444444812,9.093722222222222],[23.468944444444812,9.09361111111111],[23.46872222222259,9.09361111111111],[23.46872222222259,9.093499999999999],[23.467388888889257,9.093499999999999],[23.467388888889257,9.0925],[23.467277777778147,9.0925],[23.467277777778147,9.092166666666666],[23.467166666667033,9.092166666666666],[23.467166666667033,9.092055555555556],[23.467055555555923,9.092055555555556],[23.467055555555923,9.091944444444444],[23.466944444444813,9.091944444444444],[23.466944444444813,9.091722222222222],[23.46672222222259,9.091722222222222],[23.46672222222259,9.09161111111111],[23.46661111111148,9.09161111111111],[23.46661111111148,9.0915],[23.46650000000037,9.0915],[23.46650000000037,9.091388888888888],[23.466388888889256,9.091388888888888],[23.466388888889256,9.091277777777778],[23.466166666667036,9.091277777777778],[23.466166666667036,9.091055555555554],[23.466055555555922,9.091055555555554],[23.466055555555922,9.090944444444444],[23.465944444444812,9.090944444444444],[23.465944444444812,9.090833333333332],[23.465833333333702,9.090833333333332],[23.465833333333702,9.09061111111111],[23.46572222222259,9.09061111111111],[23.46572222222259,9.090499999999999],[23.46561111111148,9.090499999999999],[23.46561111111148,9.090388888888889],[23.464611111111477,9.090388888888889],[23.464611111111477,9.090499999999999],[23.46372222222259,9.090499999999999],[23.46372222222259,9.090722222222222],[23.4638333333337,9.090722222222222],[23.4638333333337,9.091166666666666],[23.463944444444813,9.091166666666666],[23.463944444444813,9.093055555555555],[23.464055555555923,9.093055555555555],[23.464055555555923,9.094166666666666],[23.464166666667033,9.094166666666666],[23.464166666667033,9.0945],[23.464277777778147,9.0945],[23.464277777778147,9.094944444444444],[23.464388888889257,9.094944444444444],[23.464388888889257,9.095166666666666],[23.464500000000367,9.095166666666666],[23.464500000000367,9.0955],[23.464611111111477,9.0955],[23.464611111111477,9.096499999999999],[23.464500000000367,9.096499999999999],[23.464500000000367,9.096944444444444],[23.464611111111477,9.096944444444444],[23.464611111111477,9.097055555555555],[23.46472222222259,9.097055555555555],[23.46472222222259,9.097277777777776],[23.4648333333337,9.097277777777776],[23.4648333333337,9.0975],[23.46494444444481,9.0975],[23.46494444444481,9.097722222222222],[23.465055555555924,9.097722222222222],[23.465055555555924,9.097944444444444],[23.46494444444481,9.097944444444444],[23.46494444444481,9.098277777777778],[23.465055555555924,9.098277777777778],[23.465055555555924,9.098611111111111],[23.46494444444481,9.098611111111111],[23.46494444444481,9.098722222222221],[23.465055555555924,9.098722222222221],[23.465055555555924,9.099944444444445],[23.465166666667034,9.099944444444445],[23.465166666667034,9.100055555555555],[23.465277777778144,9.100055555555555],[23.465277777778144,9.100166666666667],[23.465388888889258,9.100166666666667],[23.465388888889258,9.100277777777777],[23.465500000000368,9.100277777777777],[23.465500000000368,9.100388888888888],[23.46561111111148,9.100388888888888],[23.46561111111148,9.1005],[23.46572222222259,9.1005],[23.46572222222259,9.10061111111111],[23.465833333333702,9.10061111111111],[23.465833333333702,9.100944444444444],[23.46572222222259,9.100944444444444],[23.46572222222259,9.101055555555556],[23.46561111111148,9.101055555555556],[23.46561111111148,9.101166666666666],[23.465500000000368,9.101166666666666],[23.465500000000368,9.101277777777778],[23.465388888889258,9.101277777777778],[23.465388888889258,9.101388888888888],[23.465166666667034,9.101388888888888],[23.465166666667034,9.1015],[23.4648333333337,9.1015],[23.4648333333337,9.101611111111112],[23.464611111111477,9.101611111111112],[23.464611111111477,9.1015],[23.4638333333337,9.1015],[23.4638333333337,9.101722222222222],[23.46361111111148,9.101722222222222],[23.46361111111148,9.101833333333333],[23.46350000000037,9.101833333333333],[23.46350000000037,9.101944444444444],[23.463277777778146,9.101944444444444],[23.463277777778146,9.101833333333333],[23.462833333333702,9.101833333333333],[23.462833333333702,9.101722222222222],[23.46172222222259,9.101722222222222],[23.46172222222259,9.101611111111112],[23.461055555555923,9.101611111111112],[23.461055555555923,9.1015],[23.460944444444813,9.1015],[23.460944444444813,9.101388888888888],[23.4608333333337,9.101388888888888],[23.4608333333337,9.101277777777778],[23.46061111111148,9.101277777777778],[23.46061111111148,9.100944444444444],[23.46050000000037,9.100944444444444],[23.46050000000037,9.100833333333332],[23.458500000000367,9.100833333333332],[23.458500000000367,9.100722222222222],[23.458166666667033,9.100722222222222],[23.458166666667033,9.10061111111111],[23.457277777778145,9.10061111111111],[23.457277777778145,9.1005],[23.456055555555924,9.1005],[23.456055555555924,9.100388888888888],[23.45594444444481,9.100388888888888],[23.45594444444481,9.1005],[23.454944444444813,9.1005],[23.454944444444813,9.100722222222222],[23.45450000000037,9.100722222222222],[23.45450000000037,9.10061111111111],[23.454388888889255,9.10061111111111],[23.454388888889255,9.1005],[23.454277777778145,9.1005],[23.454277777778145,9.100388888888888],[23.454166666667035,9.100388888888888],[23.454166666667035,9.100277777777777],[23.453055555555924,9.100277777777777],[23.453055555555924,9.100166666666667],[23.45294444444481,9.100166666666667],[23.45294444444481,9.100055555555555],[23.4528333333337,9.100055555555555],[23.4528333333337,9.099944444444445],[23.45261111111148,9.099944444444445],[23.45261111111148,9.099722222222221],[23.452277777778146,9.099722222222221],[23.452277777778146,9.09961111111111],[23.452166666667033,9.09961111111111],[23.452166666667033,9.099388888888889],[23.452055555555923,9.099388888888889],[23.452055555555923,9.099277777777777],[23.451166666667035,9.099277777777777],[23.451166666667035,9.099166666666667],[23.45105555555592,9.099166666666667],[23.45105555555592,9.099055555555555],[23.45094444444481,9.099055555555555],[23.45094444444481,9.098944444444443],[23.4508333333337,9.098944444444443],[23.4508333333337,9.098833333333333],[23.45072222222259,9.098833333333333],[23.45072222222259,9.098722222222221],[23.450500000000368,9.098722222222221],[23.450500000000368,9.098611111111111],[23.450277777778144,9.098611111111111],[23.450277777778144,9.0985],[23.450166666667034,9.0985],[23.450166666667034,9.098388888888888],[23.44961111111148,9.098388888888888],[23.44961111111148,9.098277777777778],[23.449500000000366,9.098277777777778],[23.449500000000366,9.098166666666666],[23.449388888889256,9.098166666666666],[23.449388888889256,9.098055555555556],[23.449277777778146,9.098055555555556],[23.449277777778146,9.097944444444444],[23.449166666667033,9.097944444444444],[23.449166666667033,9.097833333333332],[23.449055555555923,9.097833333333332],[23.449055555555923,9.097722222222222],[23.4488333333337,9.097722222222222],[23.4488333333337,9.09761111111111],[23.448388888889255,9.09761111111111],[23.448388888889255,9.0975],[23.44805555555592,9.0975],[23.44805555555592,9.097388888888888],[23.4478333333337,9.097388888888888],[23.4478333333337,9.097277777777776],[23.44772222222259,9.097277777777776],[23.44772222222259,9.097055555555555],[23.447500000000367,9.097055555555555],[23.447500000000367,9.096944444444444],[23.446388888889256,9.096944444444444],[23.446388888889256,9.096722222222223],[23.446166666667033,9.096722222222223],[23.446166666667033,9.09661111111111],[23.44550000000037,9.09661111111111],[23.44550000000037,9.096499999999999],[23.445388888889255,9.096499999999999],[23.445388888889255,9.09661111111111],[23.445277777778145,9.09661111111111],[23.445277777778145,9.096499999999999],[23.445166666667035,9.096499999999999],[23.445166666667035,9.096388888888889],[23.44505555555592,9.096388888888889],[23.44505555555592,9.096277777777777],[23.44494444444481,9.096277777777777],[23.44494444444481,9.096166666666667],[23.4448333333337,9.096166666666667],[23.4448333333337,9.096055555555555],[23.44472222222259,9.096055555555555],[23.44472222222259,9.095944444444443],[23.444611111111477,9.095944444444443],[23.444611111111477,9.095833333333333],[23.444388888889257,9.095833333333333],[23.444388888889257,9.095722222222221],[23.444277777778144,9.095722222222221],[23.444277777778144,9.095611111111111],[23.444166666667034,9.095611111111111],[23.444166666667034,9.0955],[23.444055555555924,9.0955],[23.444055555555924,9.095388888888888],[23.443166666667032,9.095388888888888],[23.443166666667032,9.095277777777778],[23.443055555555922,9.095277777777778],[23.443055555555922,9.095166666666666],[23.442944444444812,9.095166666666666],[23.442944444444812,9.095055555555556],[23.44272222222259,9.095055555555556],[23.44272222222259,9.094944444444444],[23.44261111111148,9.094944444444444],[23.44261111111148,9.094833333333332],[23.442388888889255,9.094833333333332],[23.442388888889255,9.094722222222222],[23.442166666667035,9.094722222222222],[23.442166666667035,9.09461111111111],[23.44205555555592,9.09461111111111],[23.44205555555592,9.0945],[23.441388888889257,9.0945],[23.441388888889257,9.094944444444444],[23.441277777778144,9.094944444444444],[23.441277777778144,9.095055555555556],[23.440166666667032,9.095055555555556],[23.440166666667032,9.094944444444444],[23.439944444444812,9.094944444444444],[23.439944444444812,9.094722222222222],[23.439833333333702,9.094722222222222],[23.439833333333702,9.09461111111111],[23.43972222222259,9.09461111111111],[23.43972222222259,9.0945],[23.439277777778145,9.0945],[23.439277777778145,9.094722222222222],[23.4388333333337,9.094722222222222],[23.4388333333337,9.09461111111111],[23.438611111111477,9.09461111111111],[23.438611111111477,9.0945],[23.437500000000366,9.0945],[23.437500000000366,9.09461111111111],[23.437277777778146,9.09461111111111],[23.437277777778146,9.094722222222222],[23.4358333333337,9.094722222222222],[23.4358333333337,9.09461111111111],[23.43572222222259,9.09461111111111],[23.43572222222259,9.0945],[23.435388888889257,9.0945],[23.435388888889257,9.094388888888888],[23.435277777778143,9.094388888888888],[23.435277777778143,9.0945],[23.435055555555923,9.0945],[23.435055555555923,9.09461111111111],[23.4348333333337,9.09461111111111],[23.4348333333337,9.094722222222222],[23.434500000000366,9.094722222222222],[23.434500000000366,9.094833333333332],[23.434166666667032,9.094833333333332],[23.434166666667032,9.094944444444444],[23.433388888889255,9.094944444444444],[23.433388888889255,9.094833333333332],[23.433166666667034,9.094833333333332],[23.433166666667034,9.094944444444444],[23.43305555555592,9.094944444444444],[23.43305555555592,9.095055555555556],[23.43294444444481,9.095055555555556],[23.43294444444481,9.095166666666666],[23.43272222222259,9.095166666666666],[23.43272222222259,9.095277777777778],[23.432611111111477,9.095277777777778],[23.432611111111477,9.095388888888888],[23.432277777778143,9.095388888888888],[23.432277777778143,9.0955],[23.432166666667033,9.0955],[23.432166666667033,9.095611111111111],[23.432055555555923,9.095611111111111],[23.432055555555923,9.095833333333333],[23.4318333333337,9.095833333333333],[23.4318333333337,9.096166666666667],[23.43172222222259,9.096166666666667],[23.43172222222259,9.096388888888889],[23.43161111111148,9.096388888888889],[23.43161111111148,9.096499999999999],[23.431166666667032,9.096499999999999],[23.431166666667032,9.09661111111111],[23.431277777778146,9.09661111111111],[23.431277777778146,9.096944444444444],[23.431166666667032,9.096944444444444],[23.431166666667032,9.097055555555555],[23.431055555555922,9.097055555555555],[23.431055555555922,9.097166666666666],[23.430944444444812,9.097166666666666],[23.430944444444812,9.097722222222222],[23.431055555555922,9.097722222222222],[23.431055555555922,9.097833333333332],[23.431166666667032,9.097833333333332],[23.431166666667032,9.097944444444444],[23.43161111111148,9.097944444444444],[23.43161111111148,9.098055555555556],[23.4318333333337,9.098055555555556],[23.4318333333337,9.098166666666666],[23.432166666667033,9.098166666666666],[23.432166666667033,9.098277777777778],[23.432277777778143,9.098277777777778],[23.432277777778143,9.098388888888888],[23.432611111111477,9.098388888888888],[23.432611111111477,9.0985],[23.43272222222259,9.0985],[23.43272222222259,9.098611111111111],[23.43294444444481,9.098611111111111],[23.43294444444481,9.098722222222221],[23.43305555555592,9.098722222222221],[23.43305555555592,9.098833333333333],[23.433277777778144,9.098833333333333],[23.433277777778144,9.099055555555555],[23.43305555555592,9.099055555555555],[23.43305555555592,9.099166666666667],[23.43294444444481,9.099166666666667],[23.43294444444481,9.099277777777777],[23.4328333333337,9.099277777777777],[23.4328333333337,9.099388888888889],[23.43272222222259,9.099388888888889],[23.43272222222259,9.099499999999999],[23.432611111111477,9.099499999999999],[23.432611111111477,9.099722222222221],[23.432500000000367,9.099722222222221],[23.432500000000367,9.099944444444445],[23.43272222222259,9.099944444444445],[23.43272222222259,9.100055555555555],[23.4328333333337,9.100055555555555],[23.4328333333337,9.100166666666667],[23.43294444444481,9.100166666666667],[23.43294444444481,9.100388888888888],[23.43305555555592,9.100388888888888],[23.43305555555592,9.10061111111111],[23.43294444444481,9.10061111111111],[23.43294444444481,9.100944444444444],[23.43305555555592,9.100944444444444],[23.43305555555592,9.101055555555556],[23.433277777778144,9.101055555555556],[23.433277777778144,9.101388888888888],[23.433388888889255,9.101388888888888],[23.433388888889255,9.101611111111112],[23.433500000000368,9.101611111111112],[23.433500000000368,9.101722222222222],[23.433611111111478,9.101722222222222],[23.433611111111478,9.101833333333333],[23.43372222222259,9.101833333333333],[23.43372222222259,9.101944444444444],[23.433833333333702,9.101944444444444],[23.433833333333702,9.102055555555555],[23.433944444444812,9.102055555555555],[23.433944444444812,9.102166666666665],[23.434055555555922,9.102166666666665],[23.434055555555922,9.102277777777777],[23.434277777778146,9.102277777777777],[23.434277777778146,9.102388888888889],[23.434500000000366,9.102388888888889],[23.434500000000366,9.1025],[23.434388888889256,9.1025],[23.434388888889256,9.102611111111111],[23.434277777778146,9.102611111111111],[23.434277777778146,9.102833333333333],[23.434166666667032,9.102833333333333],[23.434166666667032,9.102944444444445],[23.434277777778146,9.102944444444445],[23.434277777778146,9.103388888888889],[23.434388888889256,9.103388888888889],[23.434388888889256,9.1035],[23.4348333333337,9.1035],[23.4348333333337,9.10361111111111],[23.435055555555923,9.10361111111111],[23.435055555555923,9.103722222222222],[23.435500000000367,9.103722222222222],[23.435500000000367,9.104055555555556],[23.435388888889257,9.104055555555556],[23.435388888889257,9.104277777777778],[23.435166666667033,9.104277777777778],[23.435166666667033,9.104388888888888],[23.435055555555923,9.104388888888888],[23.435055555555923,9.1045],[23.43461111111148,9.1045],[23.43461111111148,9.104611111111112],[23.434500000000366,9.104611111111112],[23.434500000000366,9.105055555555555],[23.434388888889256,9.105055555555555],[23.434388888889256,9.105166666666666],[23.434500000000366,9.105166666666666],[23.434500000000366,9.105277777777777],[23.43461111111148,9.105277777777777],[23.43461111111148,9.10538888888889],[23.43472222222259,9.10538888888889],[23.43472222222259,9.1055],[23.4348333333337,9.1055],[23.4348333333337,9.105611111111111],[23.43472222222259,9.105611111111111],[23.43472222222259,9.105833333333333],[23.43461111111148,9.105833333333333],[23.43461111111148,9.106055555555555],[23.43472222222259,9.106055555555555],[23.43472222222259,9.106166666666667],[23.434944444444813,9.106166666666667],[23.434944444444813,9.106277777777777],[23.43472222222259,9.106277777777777],[23.43472222222259,9.106833333333332],[23.4348333333337,9.106833333333332],[23.4348333333337,9.107166666666666],[23.43472222222259,9.107166666666666],[23.43472222222259,9.107277777777778],[23.4348333333337,9.107277777777778],[23.4348333333337,9.1075],[23.435055555555923,9.1075],[23.435055555555923,9.10761111111111],[23.435277777778143,9.10761111111111],[23.435277777778143,9.107722222222222],[23.435388888889257,9.107722222222222],[23.435388888889257,9.107833333333334],[23.435500000000367,9.107833333333334],[23.435500000000367,9.107944444444444],[23.4358333333337,9.107944444444444],[23.4358333333337,9.108055555555556],[23.43594444444481,9.108055555555556],[23.43594444444481,9.108166666666666],[23.436166666667035,9.108166666666666],[23.436166666667035,9.108277777777777],[23.436277777778145,9.108277777777777],[23.436277777778145,9.10838888888889],[23.436388888889255,9.10838888888889],[23.436388888889255,9.1085],[23.43650000000037,9.1085],[23.43650000000037,9.108611111111111],[23.43661111111148,9.108611111111111],[23.43661111111148,9.108722222222221],[23.43672222222259,9.108722222222221],[23.43672222222259,9.108833333333333],[23.436833333333702,9.108833333333333],[23.436833333333702,9.109277777777777],[23.437055555555922,9.109277777777777],[23.437055555555922,9.109388888888889],[23.437166666667032,9.109388888888889],[23.437166666667032,9.1095],[23.437388888889256,9.1095],[23.437388888889256,9.109722222222222],[23.437277777778146,9.109722222222222],[23.437277777778146,9.110166666666666],[23.437500000000366,9.110166666666666],[23.437500000000366,9.110277777777778],[23.43761111111148,9.110277777777778],[23.43761111111148,9.110388888888888],[23.4378333333337,9.110388888888888],[23.4378333333337,9.1105],[23.438166666667033,9.1105],[23.438166666667033,9.110722222222222],[23.438277777778143,9.110722222222222],[23.438277777778143,9.110944444444444],[23.438388888889257,9.110944444444444],[23.438388888889257,9.111611111111111],[23.438500000000367,9.111611111111111],[23.438500000000367,9.112055555555555],[23.43905555555592,9.112055555555555],[23.43905555555592,9.112166666666667],[23.439166666667035,9.112166666666667],[23.439166666667035,9.112277777777777],[23.439277777778145,9.112277777777777],[23.439277777778145,9.112166666666667],[23.43972222222259,9.112166666666667],[23.43972222222259,9.112055555555555],[23.439944444444812,9.112055555555555],[23.439944444444812,9.11261111111111],[23.440055555555922,9.11261111111111],[23.440055555555922,9.112833333333333],[23.440166666667032,9.112833333333333],[23.440166666667032,9.113277777777778],[23.440277777778146,9.113277777777778],[23.440277777778146,9.113388888888888],[23.440500000000366,9.113388888888888],[23.440500000000366,9.1135],[23.4408333333337,9.1135],[23.4408333333337,9.113388888888888],[23.44094444444481,9.113388888888888],[23.44094444444481,9.113277777777778],[23.441388888889257,9.113277777777778],[23.441388888889257,9.113388888888888],[23.441500000000367,9.113388888888888],[23.441500000000367,9.1135],[23.441611111111477,9.1135],[23.441611111111477,9.11361111111111],[23.441500000000367,9.11361111111111],[23.441500000000367,9.113944444444444],[23.441388888889257,9.113944444444444],[23.441388888889257,9.114166666666666],[23.441500000000367,9.114166666666666],[23.441500000000367,9.114277777777778],[23.441611111111477,9.114277777777778],[23.441611111111477,9.1145],[23.44172222222259,9.1145],[23.44172222222259,9.114722222222222],[23.4418333333337,9.114722222222222],[23.4418333333337,9.114833333333333],[23.44194444444481,9.114833333333333],[23.44194444444481,9.115166666666667],[23.44205555555592,9.115166666666667],[23.44205555555592,9.115388888888889],[23.44250000000037,9.115388888888889],[23.44250000000037,9.115277777777777],[23.443055555555922,9.115277777777777],[23.443055555555922,9.115166666666667],[23.443166666667032,9.115166666666667],[23.443166666667032,9.115055555555555],[23.443277777778146,9.115055555555555],[23.443277777778146,9.115166666666667],[23.444055555555924,9.115166666666667],[23.444055555555924,9.115277777777777],[23.444277777778144,9.115277777777777],[23.444277777778144,9.115166666666667],[23.444388888889257,9.115166666666667],[23.444388888889257,9.114944444444445],[23.445166666667035,9.114944444444445],[23.445166666667035,9.115166666666667],[23.445277777778145,9.115166666666667],[23.445277777778145,9.115277777777777],[23.445388888889255,9.115277777777777],[23.445388888889255,9.115499999999999],[23.445277777778145,9.115499999999999],[23.445277777778145,9.11561111111111],[23.445166666667035,9.11561111111111],[23.445166666667035,9.115722222222223],[23.445277777778145,9.115722222222223],[23.445277777778145,9.115833333333333],[23.445388888889255,9.115833333333333],[23.445388888889255,9.115944444444445],[23.44572222222259,9.115944444444445],[23.44572222222259,9.116055555555555],[23.445944444444812,9.116055555555555],[23.445944444444812,9.116166666666667],[23.446055555555922,9.116166666666667],[23.446055555555922,9.116055555555555],[23.446166666667033,9.116055555555555],[23.446166666667033,9.115833333333333],[23.446277777778146,9.115833333333333],[23.446277777778146,9.11561111111111],[23.446500000000366,9.11561111111111],[23.446500000000366,9.115499999999999],[23.44661111111148,9.115499999999999],[23.44661111111148,9.115388888888889],[23.44694444444481,9.115388888888889],[23.44694444444481,9.115499999999999],[23.447055555555924,9.115499999999999],[23.447055555555924,9.11561111111111],[23.447166666667034,9.11561111111111],[23.447166666667034,9.115722222222223],[23.447277777778144,9.115722222222223],[23.447277777778144,9.115833333333333],[23.44794444444481,9.115833333333333],[23.44794444444481,9.11561111111111],[23.448944444444813,9.11561111111111],[23.448944444444813,9.115722222222223],[23.44961111111148,9.115722222222223],[23.44961111111148,9.115833333333333],[23.44972222222259,9.115833333333333],[23.44972222222259,9.115944444444445],[23.4498333333337,9.115944444444445],[23.4498333333337,9.116055555555555],[23.44994444444481,9.116055555555555],[23.44994444444481,9.116722222222222],[23.4498333333337,9.116722222222222],[23.4498333333337,9.117166666666666],[23.450500000000368,9.117166666666666],[23.450500000000368,9.117277777777778],[23.450611111111478,9.117277777777778],[23.450611111111478,9.11738888888889],[23.45072222222259,9.11738888888889],[23.45072222222259,9.1175],[23.4508333333337,9.1175],[23.4508333333337,9.117833333333333],[23.45094444444481,9.117833333333333],[23.45094444444481,9.117944444444444],[23.45105555555592,9.117944444444444],[23.45105555555592,9.118055555555555],[23.451277777778145,9.118055555555555],[23.451277777778145,9.118166666666667],[23.451388888889255,9.118166666666667],[23.451388888889255,9.118277777777777],[23.4518333333337,9.118277777777777],[23.4518333333337,9.118166666666667],[23.453055555555924,9.118166666666667],[23.453055555555924,9.118277777777777],[23.453166666667034,9.118277777777777],[23.453166666667034,9.118388888888889],[23.453388888889258,9.118388888888889],[23.453388888889258,9.1185],[23.453500000000368,9.1185],[23.453500000000368,9.118611111111111],[23.45450000000037,9.118611111111111],[23.45450000000037,9.118833333333333],[23.45461111111148,9.118833333333333],[23.45461111111148,9.118944444444445],[23.4548333333337,9.118944444444445],[23.4548333333337,9.119055555555555],[23.454944444444813,9.119055555555555],[23.454944444444813,9.119166666666667],[23.455055555555923,9.119166666666667],[23.455055555555923,9.119277777777778],[23.455166666667033,9.119277777777778],[23.455166666667033,9.119388888888889],[23.455277777778146,9.119388888888889],[23.455277777778146,9.119277777777778],[23.45572222222259,9.119277777777778],[23.45572222222259,9.119388888888889],[23.456166666667034,9.119388888888889],[23.456166666667034,9.1195],[23.456277777778144,9.1195],[23.456277777778144,9.11961111111111],[23.456500000000368,9.11961111111111],[23.456500000000368,9.119722222222222],[23.456611111111478,9.119722222222222],[23.456611111111478,9.119833333333334],[23.458055555555923,9.119833333333334],[23.458055555555923,9.120055555555556],[23.458166666667033,9.120055555555556],[23.458166666667033,9.120166666666666],[23.458277777778147,9.120166666666666],[23.458277777778147,9.120277777777778],[23.45861111111148,9.120277777777778],[23.45861111111148,9.12038888888889],[23.45872222222259,9.12038888888889],[23.45872222222259,9.1205],[23.4588333333337,9.1205],[23.4588333333337,9.120611111111112],[23.45894444444481,9.120611111111112],[23.45894444444481,9.120722222222222],[23.459055555555924,9.120722222222222],[23.459055555555924,9.120833333333334],[23.459166666667034,9.120833333333334],[23.459166666667034,9.120944444444444],[23.459277777778144,9.120944444444444],[23.459277777778144,9.121055555555555],[23.459388888889258,9.121055555555555],[23.459388888889258,9.121166666666667],[23.4598333333337,9.121166666666667],[23.4598333333337,9.121055555555555],[23.460055555555922,9.121055555555555],[23.460055555555922,9.120833333333334],[23.460277777778145,9.120833333333334],[23.460277777778145,9.120944444444444],[23.460388888889256,9.120944444444444],[23.460388888889256,9.121055555555555],[23.46050000000037,9.121055555555555],[23.46050000000037,9.121166666666667],[23.4608333333337,9.121166666666667],[23.4608333333337,9.121277777777777],[23.460944444444813,9.121277777777777],[23.460944444444813,9.12138888888889]]]}}]}
